NORAD_CAT_ID,OBJECT_NAME,OBJECT_TYPE,EPOCH,MEAN_MOTION,ECCENTRICITY,INCLINATION,RA_OF_ASC_NODE,ARG_OF_PERICENTER,MEAN_ANOMALY,BSTAR,MEAN_MOTION_DOT,MEAN_MOTION_DDOT,TLE_LINE0,TLE_LINE1,TLE_LINE2,SEMIMAJOR_AXIS,PERIOD,APOGEE,PERIGEE,DECAYED
52131.0,STARLINK-3711,PAYLOAD,2022-12-19 13:59:00,15.08828418,0.0002116,53.2188,308.8787,41.3292,318.786,1.4295999999999992e-05,-6.1e-07,0.0,0 STARLINK-3711,1 52131U 22029AV  22353.58264786 -.00000061  00000-0  14296-4 0  9992,2 52131  53.2188 308.8787 0002116  41.3292 318.7860 15.08828418 43389,6917.916,95.438,541.245,538.317,0.0
52131.0,STARLINK-3711,PAYLOAD,2022-12-20 01:06:41,15.08843641,0.0002224,53.2178,306.7962,30.7439,329.3683,0.00013334,1.835e-05,0.0,0 STARLINK-3711,1 52131U 22029AV  22354.04631405  .00001835  00000-0  13334-3 0  9990,2 52131  53.2178 306.7962 0002224  30.7439 329.3683 15.08843641 43459,6917.869000000002,95.437,541.273,538.196,0.0
52131.0,STARLINK-3711,PAYLOAD,2022-12-20 13:49:46,15.0884478,0.000211,53.2179,304.4174,36.5092,323.6043,9.6972e-05,1.256e-05,0.0,0 STARLINK-3711,1 52131U 22029AV  22354.57623256  .00001256  00000-0  96972-4 0  9990,2 52131  53.2179 304.4174 0002110  36.5092 323.6043 15.08844780 43534,6917.866,95.437,541.19,538.271,0.0
52131.0,STARLINK-3711,PAYLOAD,2022-12-21 00:57:29,15.08833534,0.0002157,53.2184,302.3369,39.797,320.318,-5.6257e-06,-3.78e-06,0.0,0 STARLINK-3711,1 52131U 22029AV  22355.03992466 -.00000378  00000-0 -56257-5 0  9993,2 52131  53.2184 302.3369 0002157  39.7970 320.3180 15.08833534 43603,6917.9,95.438,541.257,538.273,0.0
52131.0,STARLINK-3711,PAYLOAD,2022-12-21 04:08:16,15.08824202,0.0001942,53.2178,301.7411,39.1651,320.9482,-0.00012002,-2.197e-05,0.0,0 STARLINK-3711,1 52131U 22029AV  22355.17241412 -.00002197  00000-0 -12002-3 0  9995,2 52131  53.2178 301.7411 0001942  39.1651 320.9482 15.08824202 43623,6917.929,95.439,541.137,538.45,0.0
52131.0,STARLINK-3711,PAYLOAD,2022-12-22 00:48:17,15.08835104,0.0002086,53.2197,297.8774,40.211,319.9036,-0.0001469,-2.625e-05,0.0,0 STARLINK-3711,1 52131U 22029AV  22356.03353500 -.00002625  00000-0 -14690-3 0  9994,2 52131  53.2197 297.8774 0002086  40.2110 319.9036 15.08835104 43754,6917.895,95.438,541.203,538.317,0.0
52131.0,STARLINK-3711,PAYLOAD,2022-12-22 03:59:03,15.08839629,0.0002154,53.2187,297.2816,40.6388,319.4765,-0.00011963,-2.192e-05,0.0,0 STARLINK-3711,1 52131U 22029AV  22356.16601159 -.00002192  00000-0 -11963-3 0  9993,2 52131  53.2187 297.2816 0002154  40.6388 319.4765 15.08839629 43773,6917.882,95.438,541.237,538.256,0.0
52131.0,STARLINK-3711,PAYLOAD,2022-12-22 13:31:21,15.08845243,0.0002158,53.2189,295.4975,39.557,320.5579,-9.5165e-06,-4.4e-06,0.0,0 STARLINK-3711,1 52131U 22029AV  22356.56344358 -.00000440  00000-0 -95165-5 0  9994,2 52131  53.2189 295.4975 0002158  39.5570 320.5579 15.08845243 43837,6917.864000000001,95.437,541.222,538.236,0.0
52131.0,STARLINK-3711,PAYLOAD,2022-12-23 02:14:26,15.08870438,0.0002391,53.2185,293.1193,38.7782,321.3382,-0.00045801,-7.577e-05,0.0,0 STARLINK-3711,1 52131U 22029AV  22357.09335993 -.00007577  00000-0 -45801-3 0  9996,2 52131  53.2185 293.1193 0002391  38.7782 321.3382 15.08870438 43919,6917.7869999999975,95.436,541.306,537.998,0.0
52131.0,STARLINK-3711,PAYLOAD,2022-12-23 05:25:13,15.08826656,0.0002052,53.2184,292.5239,38.8399,321.274,0.00011083,1.476e-05,0.0,0 STARLINK-3711,1 52131U 22029AV  22357.22585158  .00001476  00000-0  11083-3 0  9996,2 52131  53.2184 292.5239 0002052  38.8399 321.2740 15.08826656 43933,6917.920999999999,95.438,541.206,538.367,0.0
52131.0,STARLINK-3711,PAYLOAD,2022-12-23 13:22:10,15.0882143,0.0002146,53.2178,291.0374,38.6715,321.4431,5.8785e-05,6.47e-06,0.0,0 STARLINK-3711,1 52131U 22029AV  22357.55706019  .00000647  00000-0  58785-4 0  9993,2 52131  53.2178 291.0374 0002146  38.6715 321.4431 15.08821430 43983,6917.937,95.439,541.2869999999998,538.318,0.0
52131.0,STARLINK-3711,PAYLOAD,2022-12-23 19:43:42,15.0883125,0.0002435,53.2182,289.8489,35.7406,324.3749,4.770800000000001e-05,4.71e-06,0.0,0 STARLINK-3711,1 52131U 22029AV  22357.82201698  .00000471  00000-0  47708-4 0  9994,2 52131  53.2182 289.8489 0002435  35.7406 324.3749 15.08831250 44027,6917.906999999997,95.438,541.457,538.0880000000002,0.0
52131.0,STARLINK-3711,PAYLOAD,2022-12-24 05:16:00,15.08847704,0.000206,53.2179,288.0619,41.4932,318.6216,8.366200000000001e-05,1.044e-05,0.0,0 STARLINK-3711,1 52131U 22029AV  22358.21944472  .00001044  00000-0  83662-4 0  9998,2 52131  53.2179 288.0619 0002060  41.4932 318.6216 15.08847704 44083,6917.857,95.437,541.1469999999998,538.297,0.0
52131.0,STARLINK-3711,PAYLOAD,2022-12-24 19:34:28,15.08843116,0.0002146,53.2175,285.3855,43.4347,316.6814,3.6881e-05,2.99e-06,0.0,0 STARLINK-3711,1 52131U 22029AV  22358.81560726  .00000299  00000-0  36881-4 0  9992,2 52131  53.2175 285.3855 0002146  43.4347 316.6814 15.08843116 44173,6917.871,95.437,541.22,538.251,0.0
52131.0,STARLINK-3711,PAYLOAD,2022-12-25 01:56:01,15.0883696,0.0002088,53.2179,284.1975,35.5935,324.5196,-1.145e-05,-4.7e-06,0.0,0 STARLINK-3711,1 52131U 22029AV  22359.08057247 -.00000470  00000-0 -11450-4 0  9999,2 52131  53.2179 284.1975 0002088  35.5935 324.5196 15.08836960 44212,6917.89,95.438,541.1990000000002,538.31,0.0
52131.0,STARLINK-3711,PAYLOAD,2022-12-25 05:06:47,15.0884029,0.0002007,53.2186,283.6007,36.2715,323.8413,-6.4581e-05,-1.316e-05,0.0,0 STARLINK-3711,1 52131U 22029AV  22359.21305209 -.00001316  00000-0 -64581-4 0  9991,2 52131  53.2186 283.6007 0002007  36.2715 323.8413 15.08840290 44232,6917.88,95.438,541.133,538.356,0.0
52131.0,STARLINK-3711,PAYLOAD,2022-12-25 19:25:15,15.08842333,0.0002205,53.2178,280.9262,41.4573,318.6586,-4.1063e-05,-9.42e-06,0.0,0 STARLINK-3711,1 52131U 22029AV  22359.80921108 -.00000942  00000-0 -41063-4 0  9992,2 52131  53.2178 280.9262 0002205  41.4573 318.6586 15.08842333 44329,6917.873000000001,95.437,541.264,538.2130000000002,0.0
52131.0,STARLINK-3711,PAYLOAD,2022-12-26 11:19:07,15.08838079,0.0002321,53.2179,277.9527,42.5142,317.6029,-8.5676e-05,-1.652e-05,0.0,0 STARLINK-3711,1 52131U 22029AV  22360.47161412 -.00001652  00000-0 -85676-4 0  9998,2 52131  53.2179 277.9527 0002321  42.5142 317.6029 15.08838079 44427,6917.886,95.438,541.357,538.146,0.0
52131.0,STARLINK-3711,PAYLOAD,2022-12-26 19:16:03,15.08831315,0.0002201,53.2178,276.466,40.178,319.9374,-2.001e-05,-6.07e-06,0.0,0 STARLINK-3711,1 52131U 22029AV  22360.80281729 -.00000607  00000-0 -20010-4 0  9999,2 52131  53.2178 276.4660 0002201  40.1780 319.9374 15.08831315 44476,6917.906999999997,95.438,541.295,538.249,0.0
52131.0,STARLINK-3711,PAYLOAD,2022-12-27 04:48:22,15.08833813,0.0002245,53.2177,274.6818,40.8415,319.2745,1.5127e-06,-2.64e-06,0.0,0 STARLINK-3711,1 52131U 22029AV  22361.20025666 -.00000264  00000-0  15127-5 0  9992,2 52131  53.2177 274.6818 0002245  40.8415 319.2745 15.08833813 44537,6917.899,95.438,541.317,538.211,0.0
52131.0,STARLINK-3711,PAYLOAD,2022-12-27 19:06:49,15.08855835,0.0002189,53.2182,272.0055,40.9499,319.1657,9.2478e-06,-1.41e-06,0.0,0 STARLINK-3711,1 52131U 22029AV  22361.79640181 -.00000141  00000-0  92478-5 0  9999,2 52131  53.2182 272.0055 0002189  40.9499 319.1657 15.08855835 44627,6917.831999999999,95.437,541.211,538.183,0.0
52131.0,STARLINK-3711,PAYLOAD,2022-12-27 22:17:35,15.08813522,0.0002406,53.2183,271.4108,48.1155,312.0042,0.00052541,8.078e-05,0.0,0 STARLINK-3711,1 52131U 22029AV  22361.92888601  .00008078  00000-0  52541-3 0  9996,2 52131  53.2183 271.4108 0002406  48.1155 312.0042 15.08813522 44640,6917.9609999999975,95.439,541.491,538.1619999999998,0.0
52131.0,STARLINK-3711,PAYLOAD,2022-12-27 23:52:58,15.08814953,0.0002405,53.2183,271.1135,48.0433,312.0763,0.00051147,7.856e-05,0.0,0 STARLINK-3711,1 52131U 22029AV  22361.99512653  .00007856  00000-0  51147-3 0  9998,2 52131  53.2183 271.1135 0002405  48.0433 312.0763 15.08814953 44654,6917.956999999999,95.439,541.486,538.158,0.0
52131.0,STARLINK-3711,PAYLOAD,2022-12-29 02:54:33,15.08831925,0.0002295,53.218,266.0582,41.2429,318.8737,-5.4633e-05,-1.158e-05,0.0,0 STARLINK-3711,1 52131U 22029AV  22363.12121531 -.00001158  00000-0 -54633-4 0  9991,2 52131  53.2180 266.0582 0002295  41.2429 318.8737 15.08831925 44829,6917.905,95.438,541.3580000000002,538.182,0.0
52131.0,STARLINK-3711,PAYLOAD,2022-12-29 10:51:28,15.0883807,0.0002137,53.2171,264.5719,38.6934,321.4211,-3.8082e-05,-8.94e-06,0.0,0 STARLINK-3711,1 52131U 22029AV  22363.45241067 -.00000894  00000-0 -38082-4 0  9990,2 52131  53.2171 264.5719 0002137  38.6934 321.4211 15.08838070 44870,6917.886,95.438,541.23,538.273,0.0
52131.0,STARLINK-3711,PAYLOAD,2022-12-30 10:42:15,15.0883794,0.0001792,53.2173,260.1113,51.1739,308.9412,-0.00018863,-3.289e-05,0.0,0 STARLINK-3711,1 52131U 22029AV  22364.44601411 -.00003289  00000-0 -18863-3 0  9998,2 52131  53.2173 260.1113 0001792  51.1739 308.9412 15.08837940 45027,6917.887,95.438,540.991,538.512,0.0
52131.0,STARLINK-3711,PAYLOAD,2022-12-30 17:03:48,15.08822544,0.0002171,53.2165,258.9202,41.2213,318.8942,4.7991e-05,4.75e-06,0.0,0 STARLINK-3711,1 52131U 22029AV  22364.71097558  .00000475  00000-0  47991-4 0  9996,2 52131  53.2165 258.9202 0002171  41.2213 318.8942 15.08822544 45067,6917.934,95.439,541.3009999999998,538.297,0.0
52131.0,STARLINK-3711,PAYLOAD,2022-12-31 02:36:05,15.08844692,0.0002251,53.2168,257.137,42.8953,317.2214,0.00013724,1.897e-05,0.0,0 STARLINK-3711,1 52131U 22029AV  22365.10840088  .00001897  00000-0  13724-3 0  9999,2 52131  53.2168 257.1370 0002251  42.8953 317.2214 15.08844692 45124,6917.866,95.437,541.288,538.174,0.0
52131.0,STARLINK-3711,PAYLOAD,2022-12-31 10:33:01,15.08839557,0.000198,53.2159,255.6479,44.5952,315.5199,7.1335e-05,8.47e-06,0.0,0 STARLINK-3711,1 52131U 22029AV  22365.43960482  .00000847  00000-0  71335-4 0  9993,2 52131  53.2159 255.6479 0001980  44.5952 315.5199 15.08839557 45175,6917.882,95.438,541.116,538.377,0.0
